0 METEOR 2-13
1 16408U 85119A   13282.52077389  .00000107  00000-0  80728-4 0  5937
2 16408 082.5387 347.2805 0016303 185.4692 263.3390 13.85242207404694
0 METEOR 2-13
1 16408U 85119A   13283.82691291  .00000115  00000-0  87853-4 0  5941
2 16408 082.5386 346.2399 0016384 181.8882 296.7959 13.85242247404875
0 METEOR 2-13
1 16408U 85119A   13286.34082927  .00000120  00000-0  92545-4 0  5963
2 16408 082.5381 344.2371 0016536 174.9466 233.2496 13.85242496405226
0 METEOR 2-13
1 16408U 85119A   13287.50952419  .00000135  00000-0  10576-3 0  5974
2 16408 082.5377 343.3061 0016598 171.7871 301.2571 13.85242677405388
0 METEOR 2-13
1 16408U 85119A   13288.52021209  .00000156  00000-0  12421-3 0  5986
2 16408 082.5374 342.5007 0016665 169.0636 301.3127 13.85243065405526
0 METEOR 2-13
1 16408U 85119A   13289.67656098  .00000117  00000-0  89533-4 0  5990
2 16408 082.5371 341.5794 0016723 165.9656 307.7256 13.85243410405681
0 METEOR 2-13
1 16408U 85119A   13290.75950193  .00000098  00000-0  72976-4 0  6008
2 16408 082.5369 340.7164 0016777 163.0463 308.0923 13.85243715405834
0 METEOR 2-13
1 16408U 85119A   13292.19351913  .00000108  00000-0  81899-4 0  6010
2 16408 082.5368 339.5737 0016898 159.0590 259.3166 13.85244111406036
0 METEOR 2-13
1 16408U 85119A   13293.20804701  .00000094  00000-0  69760-4 0  6029
2 16408 082.5367 338.7651 0016922 156.4480 278.4018 13.85244194406172
0 METEOR 2-13
1 16408U 85119A   13294.28605355  .00000080  00000-0  56806-4 0  6035
2 16408 082.5367 337.9061 0016971 153.5931 254.1141 13.85244383406326
0 METEOR 2-13
1 16408U 85119A   13295.52601595  .00000103  00000-0  77344-4 0  6042
2 16408 082.5367 336.9179 0017003 150.3323 317.4329 13.85244598406499
